YAOGAN-30 02C           
1 42947U 17058C   26068.97478380  .00004384  00000+0  31396-3 0  9998
2 42947  34.9965 266.8068 0004219  49.9722 310.1357 15.03855670460874
STARLINK-6282           
1 56407U 23061AK  26067.69574815 -.00000445  00000+0 -17853-4 0  9992
2 56407  43.0029 189.9984 0001179 268.4927  91.5781 15.02535676156751
